{"fetched_at":"2026-03-29T16:36:15Z","count":15609,"tles":[{"name":"STARLINK-34751","line1":"1 65338U 25189R   26087.80046020  .00025517  00000+0  87052-3 0  9997","line2":"2 65338  53.1596 117.9064 0001382  86.3051 273.8108 15.30206633 34039","category":"Starlink"}]}